[{"OBJECT_ID":"2005-036A","OBJECT_NAME":"ANIK F1-R","NORAD_CAT_ID":"28868","OBJECT_TYPE":"PAYLOAD","PERIOD":"1436.102","INCLINATION":"0.011","APOGEE":"35791.863","PERIGEE":"35781.532","ECCENTRICITY":"0.0001225","MEAN_MOTION":"1.00271425","TLE_LINE1":"1 28868U 05036A   16239.51755185 -.00000103  00000-0  00000+0 0  9998","TLE_LINE2":"2 28868   0.0110  57.3782 0001225  59.8035 297.0002  1.00271425 40240","LAUNCH_DATE":"2005-09-08","LAUNCH_SITE":"TYURATAM MISSILE AND SPACE COMPLEX","OWNER":"CANADA","ORBIT_TYPE":"Geosynchronous","OPERATIONAL_STATUS":"Operational","satInfo":{"lng":-105.27439962474239,"lat":-0.7535386773306975,"elevation":-9.309226734443383,"azimuth":60.274399624742294,"range":42723.567875352164,"height":35786.390603562424,"velocity":3.0746433943681284},"x":-345,"y":94,"dx":-8,"dy":30},{"OBJECT_ID":"2005-041A","OBJECT_NAME":"GALAXY 15","NORAD_CAT_ID":"28884","OBJECT_TYPE":"PAYLOAD","PERIOD":"1436.087","INCLINATION":"0.0568","APOGEE":"35791.007","PERIGEE":"35781.824","ECCENTRICITY":"0.0001089","MEAN_MOTION":"1.00272431","TLE_LINE1":"1 28884U 05041A   16239.28844422  .00000050  00000-0  00000+0 0  9999","TLE_LINE2":"2 28884   0.0568 282.2553 0001089 247.7303 135.8159  1.00272431 39703","LAUNCH_DATE":"2005-10-13","LAUNCH_SITE":"FRENCH GUIANA","OWNER":"INTERNATIONAL TELECOMMUNICATIONS SATELLITE ORGANIZATION (INTELSAT)","ORBIT_TYPE":"Geosynchronous","OPERATIONAL_STATUS":"Partially operational","satInfo":{"lng":-114.7149507839639,"lat":-1.1601535131954321,"elevation":-9.708907259141517,"azimuth":69.71495078396386,"range":42750.859720931934,"height":35769.04459112264,"velocity":3.0754530222860708},"x":-325,"y":150,"dx":-13,"dy":28},{"OBJECT_ID":"2005-041B","OBJECT_NAME":"SYRACUSE 3A","NORAD_CAT_ID":"28885","OBJECT_TYPE":"PAYLOAD","PERIOD":"1436.037","INCLINATION":"0.0082","APOGEE":"35798.152","PERIGEE":"35772.711","ECCENTRICITY":"0.0003017","MEAN_MOTION":"1.00275941","TLE_LINE1":"1 28885U 05041B   16238.83416251  .00000101  00000-0  00000+0 0  9992","TLE_LINE2":"2 28885   0.0082 115.1011 0003017  50.9937 155.7254  1.00275941 39805","LAUNCH_DATE":"2005-10-13","LAUNCH_SITE":"FRENCH GUIANA","OWNER":"FRANCE","ORBIT_TYPE":"Geosynchronous","OPERATIONAL_STATUS":"Operational","satInfo":{"lng":100.96934768259581,"lat":-0.31535251996495,"elevation":-8.88275022978279,"azimuth":214.0306523174042,"range":42670.84529039546,"height":35781.56912537883,"velocity":3.0748179378104337},"x":351,"y":68,"dx":-6,"dy":-30},{"OBJECT_ID":"2005-046A","OBJECT_NAME":"TELKOM 2","NORAD_CAT_ID":"28902","OBJECT_TYPE":"PAYLOAD","PERIOD":"1436.061","INCLINATION":"0.0355","APOGEE":"35792.054","PERIGEE":"35779.768","ECCENTRICITY":"0.0001457","MEAN_MOTION":"1.0027423","TLE_LINE1":"1 28902U 05046A   16238.42313179 -.00000389  00000-0  00000+0 0  9996","TLE_LINE2":"2 28902   0.0355 282.7090 0001457 241.4507  80.2697  1.00274230 39311","LAUNCH_DATE":"2005-11-16","LAUNCH_SITE":"FRENCH GUIANA","OWNER":"INDONESIA","ORBIT_TYPE":"Geosynchronous","OPERATIONAL_STATUS":"Operational","satInfo":{"lng":66.48274969829683,"lat":1.1446870108989664,"elevation":-7.448482937670778,"azimuth":248.51725030170317,"range":42543.25964381912,"height":35814.546708839065,"velocity":3.073542937802596},"x":328,"y":-143,"dx":12,"dy":-28},{"OBJECT_ID":"2005-046B","OBJECT_NAME":"SPACEWAY 2","NORAD_CAT_ID":"28903","OBJECT_TYPE":"PAYLOAD","PERIOD":"1436.094","INCLINATION":"0.0032","APOGEE":"35787.728","PERIGEE":"35785.367","ECCENTRICITY":"2.8e-05","MEAN_MOTION":"1.00271961","TLE_LINE1":"1 28903U 05046B   16239.11229942 -.00000154  00000-0  00000+0 0  9998","TLE_LINE2":"2 28903   0.0032  18.1172 0000280 262.7482 355.2613  1.00271961 39576","LAUNCH_DATE":"2005-11-16","LAUNCH_SITE":"FRENCH GUIANA","OWNER":"UNITED STATES OF AMERICA","ORBIT_TYPE":"Geosynchronous","OPERATIONAL_STATUS":"Operational","satInfo":{"lng":-104.65021580676465,"lat":-0.5344244964983462,"elevation":-9.095134965235108,"azimuth":59.650215806764606,"range":42701.621642129685,"height":35788.43949282757,"velocity":3.074652208953942},"x":-346,"y":91,"dx":-8,"dy":30},{"OBJECT_ID":"2005-049A","OBJECT_NAME":"INSAT 4A","NORAD_CAT_ID":"28911","OBJECT_TYPE":"PAYLOAD","PERIOD":"1436.086","INCLINATION":"0.078","APOGEE":"35804.860","PERIGEE":"35767.932","ECCENTRICITY":"0.0004379","MEAN_MOTION":"1.00272499","TLE_LINE1":"1 28911U 05049A   16238.84016785 -.00000192  00000-0  00000+0 0  9990","TLE_LINE2":"2 28911   0.0780 270.3204 0004379 315.2292 134.4081  1.00272499 39178","LAUNCH_DATE":"2005-12-21","LAUNCH_SITE":"FRENCH GUIANA","OWNER":"INDIA","ORBIT_TYPE":"Geosynchronous","OPERATIONAL_STATUS":"Operational","satInfo":{"lng":67.52499735760142,"lat":0.6530818192039981,"elevation":-7.931864653621937,"azimuth":247.47500264239858,"range":42586.98506616714,"height":35804.15034189837,"velocity":3.07336737910888},"x":331,"y":-137,"dx":12,"dy":-28},{"OBJECT_ID":"2005-049B","OBJECT_NAME":"METEOSAT 9 (MSG 2)","NORAD_CAT_ID":"28912","OBJECT_TYPE":"PAYLOAD","PERIOD":"1436.196","INCLINATION":"1.6287","APOGEE":"35792.077","PERIGEE":"35785.002","ECCENTRICITY":"8.39e-05","MEAN_MOTION":"1.00264854","TLE_LINE1":"1 28912U 05049B   16239.25525866  .00000034  00000-0  00000+0 0  9996","TLE_LINE2":"2 28912   1.6287  69.0157 0000839  87.3429 280.0015  1.00264854 39164","LAUNCH_DATE":"2005-12-21","LAUNCH_SITE":"FRENCH GUIANA","OWNER":"EUROPEAN ORGANIZATION FOR THE EXPLOITATION OF METEOROLOGICAL SATELLITES","ORBIT_TYPE":"Geosynchronous","OPERATIONAL_STATUS":"Operational","satInfo":{"lng":9.748114565580256,"lat":-3.0058021965641073,"elevation":-11.497724342993916,"azimuth":305.25188543441976,"range":42975.158444866174,"height":35792.58130768971,"velocity":3.0743404080930268},"x":61,"y":-353,"dx":30,"dy":-5},{"OBJECT_ID":"2005-052A","OBJECT_NAME":"EUTE 172A (GE 23)","NORAD_CAT_ID":"28924","OBJECT_TYPE":"PAYLOAD","PERIOD":"1436.111","INCLINATION":"0.0672","APOGEE":"35809.554","PERIGEE":"35764.210","ECCENTRICITY":"0.0005377","MEAN_MOTION":"1.00270766","TLE_LINE1":"1 28924U 05052A   16238.59601903 -.00000033  00000-0  00000+0 0  9996","TLE_LINE2":"2 28924   0.0672 357.1297 0005377 165.9277 197.7743  1.00270766 39060","LAUNCH_DATE":"2005-12-29","LAUNCH_SITE":"TYURATAM MISSILE AND SPACE COMPLEX","OWNER":"EUROPEAN TELECOMMUNICATIONS SATELLITE ORGANIZATION (EUTELSAT)","ORBIT_TYPE":"Geosynchronous","OPERATIONAL_STATUS":"Operational","satInfo":{"lng":90.78580354881944,"lat":0.18743095661057113,"elevation":-8.396555741289614,"azimuth":224.2141964511805,"range":42591.925310914885,"height":35757.475490876,"velocity":3.0755554707655324},"x":358,"y":5,"dx":0,"dy":-31},{"OBJECT_ID":"2006-003A","OBJECT_NAME":"ECHOSTAR 10","NORAD_CAT_ID":"28935","OBJECT_TYPE":"PAYLOAD","PERIOD":"1436.085","INCLINATION":"0.0627","APOGEE":"35794.609","PERIGEE":"35778.139","ECCENTRICITY":"0.0001953","MEAN_MOTION":"1.00272579","TLE_LINE1":"1 28935U 06003A   16239.21927689 -.00000084  00000-0  00000+0 0  9993","TLE_LINE2":"2 28935   0.0627 287.5997 0001953 260.4299 115.6138  1.00272579 38594","LAUNCH_DATE":"2006-02-15","LAUNCH_SITE":"SEA LAUNCH","OWNER":"UNITED STATES OF AMERICA","ORBIT_TYPE":"Geosynchronous","OPERATIONAL_STATUS":"Operational","satInfo":{"lng":-104.87380432230573,"lat":-0.9851252068752692,"elevation":-9.536926374543246,"azimuth":59.873804322305624,"range":42739.0600049384,"height":35776.452016191324,"velocity":3.075312515284998},"x":-346,"y":92,"dx":-8,"dy":30},{"OBJECT_ID":"2006-003B","OBJECT_NAME":"BLOCK DM-SL R/B","NORAD_CAT_ID":"28936","OBJECT_TYPE":"ROCKET BODY","PERIOD":"656.045","INCLINATION":"0.2955","APOGEE":"35602.912","PERIGEE":"1661.126","ECCENTRICITY":"0.6785601","MEAN_MOTION":"2.19496805","TLE_LINE1":"1 28936U 06003B   16238.87054488 -.00000214 +00000-0 +00000-0 0  9999","TLE_LINE2":"2 28936 000.2955 117.3801 6785601 057.4833 001.1677 02.19496805084429","LAUNCH_DATE":"2006-02-15","LAUNCH_SITE":"SEA LAUNCH","OWNER":"SEA LAUNCH DEMO","ORBIT_TYPE":"Highly Elliptical Orbit","OPERATIONAL_STATUS":"N/A, derelict rocket body","satInfo":{"lng":-50.28813702509505,"lat":0.5867310825729334,"elevation":-10.007502773020057,"azimuth":5.288137025094998,"range":34577.87447377192,"height":27675.41857836591,"velocity":2.7336166308833354},"x":-213,"y":-177,"dx":17,"dy":21},{"OBJECT_ID":"2006-004A","OBJECT_NAME":"MTSAT 2","NORAD_CAT_ID":"28937","OBJECT_TYPE":"PAYLOAD","PERIOD":"1436.106","INCLINATION":"0.0319","APOGEE":"35801.823","PERIGEE":"35771.742","ECCENTRICITY":"0.0003567","MEAN_MOTION":"1.00271121","TLE_LINE1":"1 28937U 06004A   16238.92132579 -.00000271 +00000-0 +00000-0 0  9998","TLE_LINE2":"2 28937 000.0319 090.9699 0003567 053.9453 306.3444 01.00271121038567","LAUNCH_DATE":"2006-02-18","LAUNCH_SITE":"TANEGASHIMA SPACE CENTER","OWNER":"JAPAN","ORBIT_TYPE":"Geosynchronous","OPERATIONAL_STATUS":"Operational","satInfo":{"lng":-61.56106567385669,"lat":-1.2980020967014454,"elevation":-9.833281115656192,"azimuth":16.561065673856692,"range":42814.94780799256,"height":35818.62731069368,"velocity":3.0732425161668235},"x":-315,"y":-171,"dx":15,"dy":27},{"OBJECT_ID":"2006-007A","OBJECT_NAME":"SPAINSAT","NORAD_CAT_ID":"28945","OBJECT_TYPE":"PAYLOAD","PERIOD":"1436.082","INCLINATION":"0.0562","APOGEE":"35807.218","PERIGEE":"35765.399","ECCENTRICITY":"0.0004959","MEAN_MOTION":"1.00272813","TLE_LINE1":"1 28945U 06007A   16239.15320924 -.00000244  00000-0  00000+0 0  9998","TLE_LINE2":"2 28945   0.0562 257.7994 0004959 279.2816 182.9149  1.00272813 38311","LAUNCH_DATE":"2006-03-11","LAUNCH_SITE":"FRENCH GUIANA","OWNER":"SPAIN","ORBIT_TYPE":"Geosynchronous","OPERATIONAL_STATUS":"Operational","satInfo":{"lng":-50.13509648543456,"lat":1.8538546301287393,"elevation":-6.761641555121012,"azimuth":5.135096485434559,"range":42423.622050160615,"height":35772.449385765416,"velocity":3.0750892551633537},"x":-275,"y":-229,"dx":20,"dy":24}]